COSMOS 1408 DEB         
1 50032U 82092RU  26095.60561573  .00006030  00000+0  11779-3 0  9992
2 50032  82.5606 301.6804 0016044 154.1191 206.0865 15.47073595243639
COSMOS 1408 DEB         
1 50058U 82092SW  26095.61527964  .00054757  00000+0  38094-3 0  9995
2 50058  82.6073 309.3269 0012687  35.5984 324.6124 15.74059822245899
COSMOS 1408 DEB         
1 50404U 82092ADS 26095.43308855  .00230979  00000+0  40784-2 0  9996
2 50404  82.1892  96.2255 0104864 159.7977 200.7470 15.43661843229286
COSMOS 1408 DEB         
1 50621U 82092ALR 26095.64130818  .00038344  00000+0  39185-3 0  9998
2 50621  82.5661 314.9378 0024690  88.8743 271.5345 15.64458125240260
